[{"OBJECT_NAME":"STARLINK-4412","OBJECT_ID":"2022-099N","EPOCH":"2026-03-09T22:13:07.504320","MEAN_MOTION":15.01261959,"ECCENTRICITY":0.00017609,"INCLINATION":97.6028,"RA_OF_ASC_NODE":190.4088,"ARG_OF_PERICENTER":62.3246,"MEAN_ANOMALY":297.8157,"EPHEMERIS_TYPE":0,"CLASSIFICATION_TYPE":"U","NORAD_CAT_ID":53477,"ELEMENT_SET_NO":999,"REV_AT_EPOCH":19671,"BSTAR":3.6846159e-5,"MEAN_MOTION_DOT":4.15e-6,"MEAN_MOTION_DDOT":0},{"OBJECT_NAME":"OBJECT U","OBJECT_ID":"2017-042U","EPOCH":"2026-03-09T22:07:56.164512","MEAN_MOTION":15.00675308,"ECCENTRICITY":0.00148173,"INCLINATION":97.4238,"RA_OF_ASC_NODE":229.7372,"ARG_OF_PERICENTER":56.7191,"MEAN_ANOMALY":303.5451,"EPHEMERIS_TYPE":0,"CLASSIFICATION_TYPE":"U","NORAD_CAT_ID":42843,"ELEMENT_SET_NO":999,"REV_AT_EPOCH":47173,"BSTAR":0.00030670501,"MEAN_MOTION_DOT":3.834e-5,"MEAN_MOTION_DDOT":0}]
